[{"OBJECT_NAME":"UKUBE-1","OBJECT_ID":"2014-037F","EPOCH":"2026-03-09T22:45:32.746752","MEAN_MOTION":15.11800455,"ECCENTRICITY":0.00030762,"INCLINATION":98.4237,"RA_OF_ASC_NODE":61.9367,"ARG_OF_PERICENTER":110.8829,"MEAN_ANOMALY":249.2728,"EPHEMERIS_TYPE":0,"CLASSIFICATION_TYPE":"U","NORAD_CAT_ID":40074,"ELEMENT_SET_NO":999,"REV_AT_EPOCH":63355,"BSTAR":0.00066503825,"MEAN_MOTION_DOT":0.0001129,"MEAN_MOTION_DDOT":0},{"OBJECT_NAME":"STARLINK-30186","OBJECT_ID":"2023-107P","EPOCH":"2026-03-09T03:34:26.783904","MEAN_MOTION":15.11062379,"ECCENTRICITY":0.00020628,"INCLINATION":43.0042,"RA_OF_ASC_NODE":340.919,"ARG_OF_PERICENTER":292.4268,"MEAN_ANOMALY":67.6359,"EPHEMERIS_TYPE":0,"CLASSIFICATION_TYPE":"U","NORAD_CAT_ID":57470,"ELEMENT_SET_NO":999,"REV_AT_EPOCH":14504,"BSTAR":0.0016488341,"MEAN_MOTION_DOT":0.00027958,"MEAN_MOTION_DDOT":0}]
